SL-4 R/B                
1 39679U 14021B   26060.05762590  .00015772  00000+0  35077-3 0  9996
2 39679  51.6074  19.3784 0098287  71.5022 289.6612 15.38839848654941
ALOS-2                  
1 39766U 14029A   26060.19715124  .00001371  00000+0  19049-3 0  9998
2 39766  97.9199 158.9172 0001467  95.9278 264.2101 14.79461577635616
YAOGAN-29               
1 41038U 15069A   26060.15801402  .00000552  00000+0  74617-4 0  9992
2 41038  98.0160  88.5647 0002353  50.3960 309.7461 14.82983382554615
ASTRO-H (HITOMI)        
1 41337U 16012A   26060.17275267  .00003750  00000+0  21972-3 0  9997
2 41337  31.0001  51.5052 0010018 246.5571 113.4014 15.09930681550942
HXMT (HUIYAN)           
1 42758U 17034A   26060.22033894  .00006023  00000+0  30427-3 0  9995
2 42758  43.0148  63.7541 0031918 183.6160 176.4462 15.17333671481258
SAOCOM 1A               
1 43641U 18076A   26060.18668372 -.00000035  00000+0  21387-5 0  9999
2 43641  97.8888 248.4788 0001278  82.6140 277.5219 14.82155805400105
H-2A R/B                
1 43682U 18084L   26059.51299476  .00020388  00000+0  49234-3 0  9994
2 43682  98.8746 274.9427 0026064  56.2065 304.1653 15.40886935404362
SAOCOM 1B               
1 46265U 20059A   26060.15040249  .00000979  00000+0  12949-3 0  9990
2 46265  97.8886 247.5409 0001499  83.1271 277.0113 14.82163082297483
CSS (TIANHE)            
1 48274U 21035A   26060.01143168  .00024837  00000+0  29853-3 0  9997
2 48274  41.4653 260.9503 0006366 218.7650 141.2732 15.60257828276251
COSMOS 2550             
1 48865U 21056A   26060.23596632 -.00000178  00000+0  41346-6 0  9995
2 48865  67.1423  66.5029 0008332 269.4046  90.6154 15.33839012262168
CZ-2C R/B               
1 52794U 22058K   26060.02382528  .00029035  00000+0  43683-3 0  9993
2 52794  50.1903   2.8430 0042143 163.8698 196.3625 15.53520699208781
CZ-2C R/B               
1 54039U 22132E   26059.97614108  .00044232  00000+0  52163-3 0  9993
2 54039  97.2960  63.0346 0020635 118.8971 241.4360 15.60975075189013
