CCSDS_OMM_VERS = 2.0
CREATION_DATE  = 
ORIGINATOR     = 

OBJECT_NAME    = SL-4 R/B
OBJECT_ID      = 2014-021B
CENTER_NAME    = EARTH
REF_FRAME      = TEME
TIME_SYSTEM    = UTC
MEAN_ELEMENT_THEORY = SGP/SGP4

EPOCH          = 2026-03-01T01:22:58.877760
MEAN_MOTION    = 15.38839848
ECCENTRICITY   = .0098287
INCLINATION    = 51.6074
RA_OF_ASC_NODE = 19.3784
ARG_OF_PERICENTER = 71.5022
MEAN_ANOMALY   = 289.6612

EPHEMERIS_TYPE = 0
CLASSIFICATION_TYPE = U
NORAD_CAT_ID   = 39679
ELEMENT_SET_NO = 999
REV_AT_EPOCH   = 65494
BSTAR          = .35077E-3
MEAN_MOTION_DOT = .15772E-3
MEAN_MOTION_DDOT = 0

CCSDS_OMM_VERS = 2.0
CREATION_DATE  = 
ORIGINATOR     = 

OBJECT_NAME    = ALOS-2
OBJECT_ID      = 2014-029A
CENTER_NAME    = EARTH
REF_FRAME      = TEME
TIME_SYSTEM    = UTC
MEAN_ELEMENT_THEORY = SGP/SGP4

EPOCH          = 2026-03-01T04:43:53.867136
MEAN_MOTION    = 14.79461577
ECCENTRICITY   = .0001467
INCLINATION    = 97.9199
RA_OF_ASC_NODE = 158.9172
ARG_OF_PERICENTER = 95.9278
MEAN_ANOMALY   = 264.2101

EPHEMERIS_TYPE = 0
CLASSIFICATION_TYPE = U
NORAD_CAT_ID   = 39766
ELEMENT_SET_NO = 999
REV_AT_EPOCH   = 63561
BSTAR          = .19049E-3
MEAN_MOTION_DOT = .1371E-4
MEAN_MOTION_DDOT = 0

CCSDS_OMM_VERS = 2.0
CREATION_DATE  = 
ORIGINATOR     = 

OBJECT_NAME    = YAOGAN-29
OBJECT_ID      = 2015-069A
CENTER_NAME    = EARTH
REF_FRAME      = TEME
TIME_SYSTEM    = UTC
MEAN_ELEMENT_THEORY = SGP/SGP4

EPOCH          = 2026-03-01T03:47:32.411328
MEAN_MOTION    = 14.82983382
ECCENTRICITY   = .0002353
INCLINATION    = 98.0160
RA_OF_ASC_NODE = 88.5647
ARG_OF_PERICENTER = 50.3960
MEAN_ANOMALY   = 309.7461

EPHEMERIS_TYPE = 0
CLASSIFICATION_TYPE = U
NORAD_CAT_ID   = 41038
ELEMENT_SET_NO = 999
REV_AT_EPOCH   = 55461
BSTAR          = .74617E-4
MEAN_MOTION_DOT = .552E-5
MEAN_MOTION_DDOT = 0

CCSDS_OMM_VERS = 2.0
CREATION_DATE  = 
ORIGINATOR     = 

OBJECT_NAME    = ASTRO-H (HITOMI)
OBJECT_ID      = 2016-012A
CENTER_NAME    = EARTH
REF_FRAME      = TEME
TIME_SYSTEM    = UTC
MEAN_ELEMENT_THEORY = SGP/SGP4

EPOCH          = 2026-03-01T04:08:45.830688
MEAN_MOTION    = 15.09930681
ECCENTRICITY   = .0010018
INCLINATION    = 31.0001
RA_OF_ASC_NODE = 51.5052
ARG_OF_PERICENTER = 246.5571
MEAN_ANOMALY   = 113.4014

EPHEMERIS_TYPE = 0
CLASSIFICATION_TYPE = U
NORAD_CAT_ID   = 41337
ELEMENT_SET_NO = 999
REV_AT_EPOCH   = 55094
BSTAR          = .21972E-3
MEAN_MOTION_DOT = .375E-4
MEAN_MOTION_DDOT = 0

CCSDS_OMM_VERS = 2.0
CREATION_DATE  = 
ORIGINATOR     = 

OBJECT_NAME    = HXMT (HUIYAN)
OBJECT_ID      = 2017-034A
CENTER_NAME    = EARTH
REF_FRAME      = TEME
TIME_SYSTEM    = UTC
MEAN_ELEMENT_THEORY = SGP/SGP4

EPOCH          = 2026-03-01T05:17:17.284416
MEAN_MOTION    = 15.17333671
ECCENTRICITY   = .0031918
INCLINATION    = 43.0148
RA_OF_ASC_NODE = 63.7541
ARG_OF_PERICENTER = 183.6160
MEAN_ANOMALY   = 176.4462

EPHEMERIS_TYPE = 0
CLASSIFICATION_TYPE = U
NORAD_CAT_ID   = 42758
ELEMENT_SET_NO = 999
REV_AT_EPOCH   = 48125
BSTAR          = .30427E-3
MEAN_MOTION_DOT = .6023E-4
MEAN_MOTION_DDOT = 0

CCSDS_OMM_VERS = 2.0
CREATION_DATE  = 
ORIGINATOR     = 

OBJECT_NAME    = SAOCOM 1A
OBJECT_ID      = 2018-076A
CENTER_NAME    = EARTH
REF_FRAME      = TEME
TIME_SYSTEM    = UTC
MEAN_ELEMENT_THEORY = SGP/SGP4

EPOCH          = 2026-03-01T04:28:49.473408
MEAN_MOTION    = 14.82155805
ECCENTRICITY   = .0001278
INCLINATION    = 97.8888
RA_OF_ASC_NODE = 248.4788
ARG_OF_PERICENTER = 82.6140
MEAN_ANOMALY   = 277.5219

EPHEMERIS_TYPE = 0
CLASSIFICATION_TYPE = U
NORAD_CAT_ID   = 43641
ELEMENT_SET_NO = 999
REV_AT_EPOCH   = 40010
BSTAR          = .21387E-5
MEAN_MOTION_DOT = -.35E-6
MEAN_MOTION_DDOT = 0

CCSDS_OMM_VERS = 2.0
CREATION_DATE  = 
ORIGINATOR     = 

OBJECT_NAME    = H-2A R/B
OBJECT_ID      = 2018-084L
CENTER_NAME    = EARTH
REF_FRAME      = TEME
TIME_SYSTEM    = UTC
MEAN_ELEMENT_THEORY = SGP/SGP4

EPOCH          = 2026-02-28T12:18:42.747264
MEAN_MOTION    = 15.40886935
ECCENTRICITY   = .00260641
INCLINATION    = 98.8746
RA_OF_ASC_NODE = 274.9427
ARG_OF_PERICENTER = 56.2065
MEAN_ANOMALY   = 304.1653

EPHEMERIS_TYPE = 0
CLASSIFICATION_TYPE = U
NORAD_CAT_ID   = 43682
ELEMENT_SET_NO = 999
REV_AT_EPOCH   = 40436
BSTAR          = .49234149E-3
MEAN_MOTION_DOT = .20388E-3
MEAN_MOTION_DDOT = 0

CCSDS_OMM_VERS = 2.0
CREATION_DATE  = 
ORIGINATOR     = 

OBJECT_NAME    = SAOCOM 1B
OBJECT_ID      = 2020-059A
CENTER_NAME    = EARTH
REF_FRAME      = TEME
TIME_SYSTEM    = UTC
MEAN_ELEMENT_THEORY = SGP/SGP4

EPOCH          = 2026-03-01T03:36:34.775136
MEAN_MOTION    = 14.82163082
ECCENTRICITY   = .0001499
INCLINATION    = 97.8886
RA_OF_ASC_NODE = 247.5409
ARG_OF_PERICENTER = 83.1271
MEAN_ANOMALY   = 277.0113

EPHEMERIS_TYPE = 0
CLASSIFICATION_TYPE = U
NORAD_CAT_ID   = 46265
ELEMENT_SET_NO = 999
REV_AT_EPOCH   = 29748
BSTAR          = .12949E-3
MEAN_MOTION_DOT = .979E-5
MEAN_MOTION_DDOT = 0

CCSDS_OMM_VERS = 2.0
CREATION_DATE  = 
ORIGINATOR     = 

OBJECT_NAME    = CSS (TIANHE)
OBJECT_ID      = 2021-035A
CENTER_NAME    = EARTH
REF_FRAME      = TEME
TIME_SYSTEM    = UTC
MEAN_ELEMENT_THEORY = SGP/SGP4

EPOCH          = 2026-03-01T00:16:27.697152
MEAN_MOTION    = 15.60257828
ECCENTRICITY   = .0006366
INCLINATION    = 41.4653
RA_OF_ASC_NODE = 260.9503
ARG_OF_PERICENTER = 218.7650
MEAN_ANOMALY   = 141.2732

EPHEMERIS_TYPE = 0
CLASSIFICATION_TYPE = U
NORAD_CAT_ID   = 48274
ELEMENT_SET_NO = 999
REV_AT_EPOCH   = 27625
BSTAR          = .29853E-3
MEAN_MOTION_DOT = .24837E-3
MEAN_MOTION_DDOT = 0

CCSDS_OMM_VERS = 2.0
CREATION_DATE  = 
ORIGINATOR     = 

OBJECT_NAME    = COSMOS 2550
OBJECT_ID      = 2021-056A
CENTER_NAME    = EARTH
REF_FRAME      = TEME
TIME_SYSTEM    = UTC
MEAN_ELEMENT_THEORY = SGP/SGP4

EPOCH          = 2026-03-01T05:39:47.490048
MEAN_MOTION    = 15.33839012
ECCENTRICITY   = .0008332
INCLINATION    = 67.1423
RA_OF_ASC_NODE = 66.5029
ARG_OF_PERICENTER = 269.4046
MEAN_ANOMALY   = 90.6154

EPHEMERIS_TYPE = 0
CLASSIFICATION_TYPE = U
NORAD_CAT_ID   = 48865
ELEMENT_SET_NO = 999
REV_AT_EPOCH   = 26216
BSTAR          = .41346E-6
MEAN_MOTION_DOT = -.178E-5
MEAN_MOTION_DDOT = 0

CCSDS_OMM_VERS = 2.0
CREATION_DATE  = 
ORIGINATOR     = 

OBJECT_NAME    = CZ-2C R/B
OBJECT_ID      = 2022-058K
CENTER_NAME    = EARTH
REF_FRAME      = TEME
TIME_SYSTEM    = UTC
MEAN_ELEMENT_THEORY = SGP/SGP4

EPOCH          = 2026-03-01T00:34:18.504192
MEAN_MOTION    = 15.53520699
ECCENTRICITY   = .0042143
INCLINATION    = 50.1903
RA_OF_ASC_NODE = 2.8430
ARG_OF_PERICENTER = 163.8698
MEAN_ANOMALY   = 196.3625

EPHEMERIS_TYPE = 0
CLASSIFICATION_TYPE = U
NORAD_CAT_ID   = 52794
ELEMENT_SET_NO = 999
REV_AT_EPOCH   = 20878
BSTAR          = .43683E-3
MEAN_MOTION_DOT = .29035E-3
MEAN_MOTION_DDOT = 0

CCSDS_OMM_VERS = 2.0
CREATION_DATE  = 
ORIGINATOR     = 

OBJECT_NAME    = CZ-2C R/B
OBJECT_ID      = 2022-132E
CENTER_NAME    = EARTH
REF_FRAME      = TEME
TIME_SYSTEM    = UTC
MEAN_ELEMENT_THEORY = SGP/SGP4

EPOCH          = 2026-02-28T23:25:38.589312
MEAN_MOTION    = 15.60975075
ECCENTRICITY   = .0020635
INCLINATION    = 97.2960
RA_OF_ASC_NODE = 63.0346
ARG_OF_PERICENTER = 118.8971
MEAN_ANOMALY   = 241.4360

EPHEMERIS_TYPE = 0
CLASSIFICATION_TYPE = U
NORAD_CAT_ID   = 54039
ELEMENT_SET_NO = 999
REV_AT_EPOCH   = 18901
BSTAR          = .52163E-3
MEAN_MOTION_DOT = .44232E-3
MEAN_MOTION_DDOT = 0

